[{"OBJECT_NAME":"TEVEL2-7","OBJECT_ID":"2025-052AE","EPOCH":"2026-03-09T15:52:01.887744","MEAN_MOTION":15.28414096,"ECCENTRICITY":0.00081048,"INCLINATION":97.4054,"RA_OF_ASC_NODE":324.3041,"ARG_OF_PERICENTER":124.683,"MEAN_ANOMALY":235.5175,"EPHEMERIS_TYPE":0,"CLASSIFICATION_TYPE":"U","NORAD_CAT_ID":63238,"ELEMENT_SET_NO":999,"REV_AT_EPOCH":5480,"BSTAR":0.00069668191,"MEAN_MOTION_DOT":0.00019244,"MEAN_MOTION_DDOT":0},{"OBJECT_NAME":"STARLINK-35295","OBJECT_ID":"2025-235N","EPOCH":"2026-03-09T17:34:39.272736","MEAN_MOTION":15.30203136,"ECCENTRICITY":0.00010524,"INCLINATION":53.1601,"RA_OF_ASC_NODE":245.3746,"ARG_OF_PERICENTER":114.8619,"MEAN_ANOMALY":245.2492,"EPHEMERIS_TYPE":0,"CLASSIFICATION_TYPE":"U","NORAD_CAT_ID":66070,"ELEMENT_SET_NO":999,"REV_AT_EPOCH":2292,"BSTAR":0.00062053483,"MEAN_MOTION_DOT":0.00018066,"MEAN_MOTION_DDOT":0}]
